STARLINK-6230           
1 57228U 23094L   26198.89394387  .00000362  00000+0  22674-4 0  9994
2 57228  43.0033  14.9577 0001338 274.9817  85.0882 15.27577392167031
STARLINK-6233           
1 57229U 23094M   26200.51718740  .00000539  00000+0  29132-4 0  9993
2 57229  43.0058   6.5010 0001710 260.8398  99.2260 15.27573320167270
STARLINK-6250           
1 57230U 23094N   26200.51975212 -.00005994  00000+0 -20832-3 0  9993
2 57230  43.0051   6.5182 0001512 265.0280  95.0400 15.27600588167279
STARLINK-5840           
1 57231U 23094P   26200.50947506  .00000375  00000+0  23143-4 0  9993
2 57231  43.0047   6.4370 0001196 272.2564  87.8151 15.27574881167274
STARLINK-5872           
1 57232U 23094Q   26200.50433921  .00000913  00000+0  42673-4 0  9992
2 57232  43.0044   6.3928 0001196 266.6689  93.4026 15.27587425167930
STARLINK-5866           
1 57233U 23094R   26200.17101633  .00031035  00000+0  11383-2 0  9999
2 57233  43.0029   8.2004 0001457 214.8476 145.2281 15.27413743167221
STARLINK-6368           
1 57234U 23094S   26199.88373593 -.00000408  00000+0 -52949-5 0  9999
2 57234  43.0027   9.4763 0001426 260.2548  99.8143 15.27574618167181
STARLINK-6360           
1 57235U 23094T   26200.49406742  .00000535  00000+0  28973-4 0  9991
2 57235  43.0035   6.3243 0001209 264.3781  95.6933 15.27571187167272
STARLINK-6315           
1 57236U 23094U   26200.47236954 -.00000087  00000+0  63811-5 0  9990
2 57236  43.0042 355.7272 0001256 266.8500  93.2208 15.27574645167396
STARLINK-6365           
1 57237U 23094V   26200.48506337  .00000219  00000+0  17486-4 0  9999
2 57237  43.0020   6.2503 0001194 263.2306  96.8410 15.27574506167271
STARLINK-6334           
1 57238U 23094W   26200.48650190  .00000771  00000+0  37537-4 0  9999
2 57238  43.0053 355.8233 0001302 274.8714  85.1989 15.27568370167390
STARLINK-6330           
1 57239U 23094X   26200.54145496 -.00000727  00000+0 -16899-4 0  9996
2 57239  43.0030   5.8136 0001532 254.9930 105.0752 15.27585905167285
STARLINK-6351           
1 57240U 23094Y   26200.50180034 -.00001873  00000+0 -58586-4 0  9993
2 57240  43.0039 355.0838 0002100 265.7576  94.3035 15.27556514167405
STARLINK-6349           
1 57241U 23094Z   26200.47624532  .00000314  00000+0  20924-4 0  9998
2 57241  43.0041 355.7549 0001113 259.1797 100.8929 15.27572353167392
STARLINK-6306           
1 57242U 23094AA  26200.41726255  .00000537  00000+0  29049-4 0  9992
2 57242  43.0053 356.1693 0001317 272.5976  87.4725 15.27575658167389
STARLINK-6346           
1 57243U 23094AB  26200.47879511 -.00000423  00000+0 -58533-5 0  9990
2 57243  43.0045 355.7712 0001129 263.7704  96.3020 15.27577324167390
STARLINK-5610           
1 57244U 23094AC  26200.42996592  .00000010  00000+0  98993-5 0  9999
2 57244  43.0048 355.4070 0001812 271.4447  88.6197 15.27579654167394
STARLINK-5587           
1 57245U 23094AD  26200.49036915  .00001516  00000+0  64624-4 0  9996
2 57245  43.0050 355.8513 0001702 284.8223  75.2441 15.27582261167394
STARLINK-5049           
1 57246U 23094AE  26199.84405638  .00000371  00000+0  23024-4 0  9992
2 57246  43.0047 358.7452 0001676 272.0755  87.9905 15.27576556167300
STARLINK-5039           
1 57247U 23094AF  26199.45944986 -.00000170  00000+0  33392-5 0  9992
2 57247  43.0033   1.0144 0001401 261.0437  99.0256 15.27576484167249
STARLINK-5514           
1 57248U 23094AG  26200.50948661  .00000335  00000+0  21695-4 0  9990
2 57248  43.0030 355.1333 0001480 266.0811  93.9871 15.27576763167402
STARLINK-5517           
1 57249U 23094AH  26200.44794521  .00000270  00000+0  19332-4 0  9991
2 57249  43.0030 355.4748 0001441 244.1294 115.9409 15.27576637167395
STARLINK-5488           
1 57250U 23094AJ  26200.46208877  .00000383  00000+0  23460-4 0  9991
2 57250  43.0025 355.6424 0001058 265.9100  94.1630 15.27574343167391
STARLINK-5513           
1 57251U 23094AK  26199.73256100 -.00000156  00000+0  38722-5 0  9998
2 57251  43.0033 359.6256 0001470 262.1431  97.9254 15.27575089167281
STARLINK-5511           
1 57252U 23094AL  26199.52355729  .00000668  00000+0  33828-4 0  9991
2 57252  43.0041   0.6418 0001560 266.1660  93.9013 15.27571129167259
STARLINK-5516           
1 57253U 23094AM  26200.45824952 -.00000008  00000+0  92532-5 0  9993
2 57253  43.0032 355.6107 0001206 270.7747  89.2966 15.27566587167394
STARLINK-5490           
1 57254U 23094AN  26200.51205668 -.00000060  00000+0  73490-5 0  9998
2 57254  43.0031 355.1527 0001610 252.4564 107.6112 15.27576889167404
STARLINK-5481           
1 57255U 23094AP  26200.44281684  .00000139  00000+0  14585-4 0  9998
2 57255  43.0031 355.4919 0001454 269.6327  90.4358 15.27576534167392
STARLINK-5512           
1 57256U 23094AQ  26200.46851733 -.00000592  00000+0 -12005-4 0  9999
2 57256  43.0049 355.6981 0001370 266.5309  93.5386 15.27575383167392
STARLINK-5503           
1 57257U 23094AR  26200.13900988 -.00000020  00000+0  87879-5 0  9998
2 57257  43.0035 357.5140 0001323 268.8585  91.2115 15.27575649168004
