OBJECT_NAME,OBJECT_ID,EPOCH,MEAN_MOTION,ECCENTRICITY,INCLINATION,RA_OF_ASC_NODE,ARG_OF_PERICENTER,MEAN_ANOMALY,EPHEMERIS_TYPE,CLASSIFICATION_TYPE,NORAD_CAT_ID,ELEMENT_SET_NO,REV_AT_EPOCH,BSTAR,MEAN_MOTION_DOT,MEAN_MOTION_DDOT
STARLINK-6230,2023-094L,2026-07-17T21:27:16.750368,15.27577392,.00013383,43.0033,14.9577,274.9817,85.0882,0,U,57228,999,16703,.22673871E-4,.362E-5,0
STARLINK-6233,2023-094M,2026-07-19T12:24:44.991360,15.27573320,.00017107,43.0058,6.5010,260.8398,99.2260,0,U,57229,999,16727,.29131778E-4,.539E-5,0
STARLINK-6250,2023-094N,2026-07-19T12:28:26.583168,15.27600588,.00015127,43.0051,6.5182,265.0280,95.0400,0,U,57230,999,16727,-.20831655E-3,-.5994E-4,0
STARLINK-5840,2023-094P,2026-07-19T12:13:38.645184,15.27574881,.00011962,43.0047,6.4370,272.2564,87.8151,0,U,57231,999,16727,.23143156E-4,.375E-5,0
STARLINK-5872,2023-094Q,2026-07-19T12:06:14.907744,15.27587425,.00011961,43.0044,6.3928,266.6689,93.4026,0,U,57232,999,16793,.42673084E-4,.913E-5,0
STARLINK-5866,2023-094R,2026-07-19T04:06:15.810912,15.27413743,.00014572,43.0029,8.2004,214.8476,145.2281,0,U,57233,999,16722,.11382974E-2,.31035E-3,0
STARLINK-6368,2023-094S,2026-07-18T21:12:34.784352,15.27574618,.00014265,43.0027,9.4763,260.2548,99.8143,0,U,57234,999,16718,-.5294948E-5,-.408E-5,0
STARLINK-6360,2023-094T,2026-07-19T11:51:27.425088,15.27571187,.00012093,43.0035,6.3243,264.3781,95.6933,0,U,57235,999,16727,.28972606E-4,.535E-5,0
STARLINK-6315,2023-094U,2026-07-19T11:20:12.728256,15.27574645,.00012561,43.0042,355.7272,266.8500,93.2208,0,U,57236,999,16739,.6381063E-5,-.87E-6,0
STARLINK-6365,2023-094V,2026-07-19T11:38:29.475168,15.27574506,.00011943,43.0020,6.2503,263.2306,96.8410,0,U,57237,999,16727,.17486189E-4,.219E-5,0
STARLINK-6334,2023-094W,2026-07-19T11:40:33.764160,15.27568370,.00013026,43.0053,355.8233,274.8714,85.1989,0,U,57238,999,16739,.37536871E-4,.771E-5,0
STARLINK-6330,2023-094X,2026-07-19T12:59:41.708544,15.27585905,.00015324,43.0030,5.8136,254.9930,105.0752,0,U,57239,999,16728,-.16899163E-4,-.727E-5,0
STARLINK-6351,2023-094Y,2026-07-19T12:02:35.549376,15.27556514,.00021005,43.0039,355.0838,265.7576,94.3035,0,U,57240,999,16740,-.58586336E-4,-.1873E-4,0
STARLINK-6349,2023-094Z,2026-07-19T11:25:47.595648,15.27572353,.00011131,43.0041,355.7549,259.1797,100.8929,0,U,57241,999,16739,.20924388E-4,.314E-5,0
STARLINK-6306,2023-094AA,2026-07-19T10:00:51.484320,15.27575658,.00013178,43.0053,356.1693,272.5976,87.4725,0,U,57242,999,16738,.29048503E-4,.537E-5,0
STARLINK-6346,2023-094AB,2026-07-19T11:29:27.897504,15.27577324,.00011294,43.0045,355.7712,263.7704,96.3020,0,U,57243,999,16739,-.585331E-5,-.423E-5,0
STARLINK-5610,2023-094AC,2026-07-19T10:19:09.055488,15.27579654,.00018129,43.0048,355.4070,271.4447,88.6197,0,U,57244,999,16739,.9899262E-5,.1E-6,0
STARLINK-5587,2023-094AD,2026-07-19T11:46:07.894560,15.27582261,.00017028,43.0050,355.8513,284.8223,75.2441,0,U,57245,999,16739,.64624487E-4,.1516E-4,0
STARLINK-5049,2023-094AE,2026-07-18T20:15:26.471232,15.27576556,.00016762,43.0047,358.7452,272.0755,87.9905,0,U,57246,999,16730,.23023969E-4,.371E-5,0
STARLINK-5039,2023-094AF,2026-07-18T11:01:36.467904,15.27576484,.00014011,43.0033,1.0144,261.0437,99.0256,0,U,57247,999,16724,.3339233E-5,-.17E-5,0
STARLINK-5514,2023-094AG,2026-07-19T12:13:39.643104,15.27576763,.00014807,43.0030,355.1333,266.0811,93.9871,0,U,57248,999,16740,.21694862E-4,.335E-5,0
STARLINK-5517,2023-094AH,2026-07-19T10:45:02.466144,15.27576637,.00014419,43.0030,355.4748,244.1294,115.9409,0,U,57249,999,16739,.19332213E-4,.27E-5,0
STARLINK-5488,2023-094AJ,2026-07-19T11:05:24.469728,15.27574343,.00010586,43.0025,355.6424,265.9100,94.1630,0,U,57250,999,16739,.2345987E-4,.383E-5,0
STARLINK-5513,2023-094AK,2026-07-18T17:34:53.270400,15.27575089,.00014702,43.0033,359.6256,262.1431,97.9254,0,U,57251,999,16728,.3872194E-5,-.156E-5,0
STARLINK-5511,2023-094AL,2026-07-18T12:33:55.349856,15.27571129,.00015602,43.0041,0.6418,266.1660,93.9013,0,U,57252,999,16725,.33828324E-4,.668E-5,0
STARLINK-5516,2023-094AM,2026-07-19T10:59:52.758528,15.27566587,.00012068,43.0032,355.6107,270.7747,89.2966,0,U,57253,999,16739,.9253232E-5,-.8E-7,0
STARLINK-5490,2023-094AN,2026-07-19T12:17:21.697152,15.27576889,.00016107,43.0031,355.1527,252.4564,107.6112,0,U,57254,999,16740,.7349036E-5,-.6E-6,0
STARLINK-5481,2023-094AP,2026-07-19T10:37:39.374976,15.27576534,.00014547,43.0031,355.4919,269.6327,90.4358,0,U,57255,999,16739,.14584925E-4,.139E-5,0
STARLINK-5512,2023-094AQ,2026-07-19T11:14:39.897312,15.27575383,.00013708,43.0049,355.6981,266.5309,93.5386,0,U,57256,999,16739,-.12005318E-4,-.592E-5,0
STARLINK-5503,2023-094AR,2026-07-19T03:20:10.453632,15.27575649,.0001323,43.0035,357.5140,268.8585,91.2115,0,U,57257,999,16800,.8787853E-5,-.2E-6,0
